{"type": "FeatureCollection", "features": [ {"type": "Feature", "properties": {"norad_id": 38552, "name": "METEOSAT-10 (MSG-3)", "group": "weather", "lat": 0.5844646318266473, "lon": -126.45957994890682, "alt_km": 35785.040196473994, "timestamp": "2025-12-20T09:36:01.273906+00:00", "meta": {"OBJECT_NAME": "METEOSAT-10 (MSG-3)", "OBJECT_ID": "2012-035B", "EPOCH": "2025-12-19T08:07:49.924128", "MEAN_MOTION": 1.00276524, "ECCENTRICITY": 6.93e-05, "INCLINATION": 4.2433, "RA_OF_ASC_NODE": 61.706, "ARG_OF_PERICENTER": 270.066, "MEAN_ANOMALY": 238.6463, "EPHEMERIS_TYPE": 0, "CLASSIFICATION_TYPE": "U", "NORAD_CAT_ID": 38552, "ELEMENT_SET_NO": 999, "REV_AT_EPOCH": 4905, "BSTAR": 0, "MEAN_MOTION_DOT": 1.7e-07, "MEAN_MOTION_DDOT": 0}, "tle": {"line1": "1 38552U 12035B   25353.33877227  .00000017  00000+0  00000+0 0  9997", "line2": "2 38552   4.2433  61.7060 0000693 270.0660 238.6463  1.00276524 49057"}}, "geometry": {"type": "Point", "coordinates": [-126.45957994890682, 0.5844646318266473]}}, {"type": "Feature", "properties": {"norad_id": 38771, "name": "METOP-B", "group": "weather", "lat": 23.447104311213984, "lon": 40.43011612153051, "alt_km": 820.5859128238908, "timestamp": "2025-12-20T09:36:01.273917+00:00", "meta": {"OBJECT_NAME": "METOP-B", "OBJECT_ID": "2012-049A", "EPOCH": "2025-12-20T02:43:52.802112", "MEAN_MOTION": 14.21410994, "ECCENTRICITY": 0.0003161, "INCLINATION": 98.6788, "RA_OF_ASC_NODE": 43.9472, "ARG_OF_PERICENTER": 128.5143, "MEAN_ANOMALY": 231.6318, "EPHEMERIS_TYPE": 0, "CLASSIFICATION_TYPE": "U", "NORAD_CAT_ID": 38771, "ELEMENT_SET_NO": 999, "REV_AT_EPOCH": 68782, "BSTAR": 6.5683e-05, "MEAN_MOTION_DOT": 1e-06, "MEAN_MOTION_DDOT": 0}, "tle": {"line1": "1 38771U 12049A   25354.11380558  .00000100  00000+0  65683-4 0  9994", "line2": "2 38771  98.6788  43.9472 0003161 128.5143 231.6318 14.21410994687828"}}, "geometry": {"type": "Point", "coordinates": [40.43011612153051, 23.447104311213984]}}, {"type": "Feature", "properties": {"norad_id": 39216, "name": "INSAT-3D", "group": "weather", "lat": -1.4477914076879155, "lon": 2.7533763247715237, "alt_km": 35783.999134300444, "timestamp": "2025-12-20T09:36:01.273943+00:00", "meta": {"OBJECT_NAME": "INSAT-3D", "OBJECT_ID": "2013-038B", "EPOCH": "2025-12-19T22:26:21.693120", "MEAN_MOTION": 1.00289095, "ECCENTRICITY": 0.0001991, "INCLINATION": 1.4625, "RA_OF_ASC_NODE": 84.9171, "ARG_OF_PERICENTER": 170.3603, "MEAN_ANOMALY": 299.5565, "EPHEMERIS_TYPE": 0, "CLASSIFICATION_TYPE": "U", "NORAD_CAT_ID": 39216, "ELEMENT_SET_NO": 999, "REV_AT_EPOCH": 4528, "BSTAR": 0, "MEAN_MOTION_DOT": -3.14e-06, "MEAN_MOTION_DDOT": 0}, "tle": {"line1": "1 39216U 13038B   25353.93497330 -.00000314  00000+0  00000+0 0  9999", "line2": "2 39216   1.4625  84.9171 0001991 170.3603 299.5565  1.00289095 45285"}}, "geometry": {"type": "Point", "coordinates": [2.7533763247715237, -1.4477914076879155]}}, {"type": "Feature", "properties": {"norad_id": 39260, "name": "FENGYUN 3C", "group": "weather", "lat": 65.25920804984287, "lon": 170.58856971346913, "alt_km": 828.2956871616652, "timestamp": "2025-12-20T09:36:01.273956+00:00", "meta": {"OBJECT_NAME": "FENGYUN 3C", "OBJECT_ID": "2013-052A", "EPOCH": "2025-12-20T05:40:26.599008", "MEAN_MOTION": 14.15698451, "ECCENTRICITY": 0.0014702, "INCLINATION": 98.477, "RA_OF_ASC_NODE": 331.55, "ARG_OF_PERICENTER": 174.1829, "MEAN_ANOMALY": 185.9519, "EPHEMERIS_TYPE": 0, "CLASSIFICATION_TYPE": "U", "NORAD_CAT_ID": 39260, "ELEMENT_SET_NO": 999, "REV_AT_EPOCH": 63324, "BSTAR": 4.2807e-05, "MEAN_MOTION_DOT": 4.3e-07, "MEAN_MOTION_DDOT": 0}, "tle": {"line1": "1 39260U 13052A   25354.23641897  .00000043  00000+0  42807-4 0  9991", "line2": "2 39260  98.4770 331.5500 0014702 174.1829 185.9519 14.15698451633240"}}, "geometry": {"type": "Point", "coordinates": [170.58856971346913, 65.25920804984287]}}, {"type": "Feature", "properties": {"norad_id": 40069, "name": "METEOR-M 2", "group": "weather", "lat": -69.79377778308972, "lon": 127.74756053729489, "alt_km": 826.3463550999031, "timestamp": "2025-12-20T09:36:01.273967+00:00", "meta": {"OBJECT_NAME": "METEOR-M 2", "OBJECT_ID": "2014-037A", "EPOCH": "2025-12-20T05:02:30.155136", "MEAN_MOTION": 14.21390217, "ECCENTRICITY": 0.0005355, "INCLINATION": 98.49, "RA_OF_ASC_NODE": 331.5083, "ARG_OF_PERICENTER": 186.0372, "MEAN_ANOMALY": 174.0742, "EPHEMERIS_TYPE": 0, "CLASSIFICATION_TYPE": "U", "NORAD_CAT_ID": 40069, "ELEMENT_SET_NO": 999, "REV_AT_EPOCH": 59389, "BSTAR": 0.00021929, "MEAN_MOTION_DOT": 4.37e-06, "MEAN_MOTION_DDOT": 0}, "tle": {"line1": "1 40069U 14037A   25354.21007124  .00000437  00000+0  21929-3 0  9999", "line2": "2 40069  98.4900 331.5083 0005355 186.0372 174.0742 14.21390217593898"}}, "geometry": {"type": "Point", "coordinates": [127.74756053729489, -69.79377778308972]}}, {"type": "Feature", "properties": {"norad_id": 40267, "name": "HIMAWARI-8", "group": "weather", "lat": -0.0034489808884658707, "lon": 13.908326240395466, "alt_km": 35785.60040756487, "timestamp": "2025-12-20T09:36:01.273980+00:00", "meta": {"OBJECT_NAME": "HIMAWARI-8", "OBJECT_ID": "2014-060A", "EPOCH": "2025-12-19T21:38:38.658912", "MEAN_MOTION": 1.00271304, "ECCENTRICITY": 8.59e-05, "INCLINATION": 0.0317, "RA_OF_ASC_NODE": 125.7318, "ARG_OF_PERICENTER": 169.0702, "MEAN_ANOMALY": 259.272, "EPHEMERIS_TYPE": 0, "CLASSIFICATION_TYPE": "U", "NORAD_CAT_ID": 40267, "ELEMENT_SET_NO": 999, "REV_AT_EPOCH": 4096, "BSTAR": 0, "MEAN_MOTION_DOT": -2.51e-06, "MEAN_MOTION_DDOT": 0}, "tle": {"line1": "1 40267U 14060A   25353.90183633 -.00000251  00000+0  00000+0 0  9998", "line2": "2 40267   0.0317 125.7318 0000859 169.0702 259.2720  1.00271304 40960"}}, "geometry": {"type": "Point", "coordinates": [13.908326240395466, -0.0034489808884658707]}}, {"type": "Feature", "properties": {"norad_id": 40367, "name": "FENGYUN 2G", "group": "weather", "lat": -5.079297642052911, "lon": -27.503331005227967, "alt_km": 35783.075959109454, "timestamp": "2025-12-20T09:36:01.273992+00:00", "meta": {"OBJECT_NAME": "FENGYUN 2G", "OBJECT_ID": "2014-090A", "EPOCH": "2025-12-19T18:56:11.651136", "MEAN_MOTION": 1.00261653, "ECCENTRICITY": 0.00026778, "INCLINATION": 5.1853, "RA_OF_ASC_NODE": 75.0175, "ARG_OF_PERICENTER": 203.1106, "MEAN_ANOMALY": 193.8582, "EPHEMERIS_TYPE": 0, "CLASSIFICATION_TYPE": "U", "NORAD_CAT_ID": 40367, "ELEMENT_SET_NO": 999, "REV_AT_EPOCH": 4020, "BSTAR": 0, "MEAN_MOTION_DOT": -2.79e-06, "MEAN_MOTION_DDOT": 0}, "tle": {"line1": "1 40367U 14090A   25353.78902374 -.00000279  00000+0  00000+0 0  9999", "line2": "2 40367   5.1853  75.0175 0002677 203.1106 193.8582  1.00261653 40200"}}, "geometry": {"type": "Point", "coordinates": [-27.503331005227967, -5.079297642052911]}}, {"type": "Feature", "properties": {"norad_id": 40732, "name": "METEOSAT-11 (MSG-4)", "group": "weather", "lat": 0.43287472692770623, "lon": -117.54788700412921, "alt_km": 35783.63449530608, "timestamp": "2025-12-20T09:36:01.274004+00:00", "meta": {"OBJECT_NAME": "METEOSAT-11 (MSG-4)", "OBJECT_ID": "2015-034A", "EPOCH": "2025-12-20T03:00:07.388064", "MEAN_MOTION": 1.00269802, "ECCENTRICITY": 8.44e-05, "INCLINATION": 2.7545, "RA_OF_ASC_NODE": 71.9831, "ARG_OF_PERICENTER": 135.8011, "MEAN_ANOMALY": 295.4135, "EPHEMERIS_TYPE": 0, "CLASSIFICATION_TYPE": "U", "NORAD_CAT_ID": 40732, "ELEMENT_SET_NO": 999, "REV_AT_EPOCH": 542, "BSTAR": 0, "MEAN_MOTION_DOT": 8.3e-07, "MEAN_MOTION_DDOT": 0}, "tle": {"line1": "1 40732U 15034A   25354.12508551  .00000083  00000+0  00000+0 0  9994", "line2": "2 40732   2.7545  71.9831 0000844 135.8011 295.4135  1.00269802  5423"}}, "geometry": {"type": "Point", "coordinates": [-117.54788700412921, 0.43287472692770623]}}, {"type": "Feature", "properties": {"norad_id": 41105, "name": "ELEKTRO-L 2", "group": "weather", "lat": 3.4750329958729838, "lon": -141.1154495909851, "alt_km": 35778.69581520424, "timestamp": "2025-12-20T09:36:01.274016+00:00", "meta": {"OBJECT_NAME": "ELEKTRO-L 2", "OBJECT_ID": "2015-074A", "EPOCH": "2025-12-20T01:10:35.962176", "MEAN_MOTION": 1.00272605, "ECCENTRICITY": 0.0003524, "INCLINATION": 6.243, "RA_OF_ASC_NODE": 72.7416, "ARG_OF_PERICENTER": 209.3854, "MEAN_ANOMALY": 169.9333, "EPHEMERIS_TYPE": 0, "CLASSIFICATION_TYPE": "U", "NORAD_CAT_ID": 41105, "ELEMENT_SET_NO": 999, "REV_AT_EPOCH": 3671, "BSTAR": 0, "MEAN_MOTION_DOT": -9.8e-07, "MEAN_MOTION_DDOT": 0}, "tle": {"line1": "1 41105U 15074A   25354.04902734 -.00000098  00000+0  00000+0 0  9992", "line2": "2 41105   6.2430  72.7416 0003524 209.3854 169.9333  1.00272605 36714"}}, "geometry": {"type": "Point", "coordinates": [-141.1154495909851, 3.4750329958729838]}}, {"type": "Feature", "properties": {"norad_id": 41752, "name": "INSAT-3DR", "group": "weather", "lat": -0.09038154788261199, "lon": -52.685672912269936, "alt_km": 35737.546263677345, "timestamp": "2025-12-20T09:36:01.274028+00:00", "meta": {"OBJECT_NAME": "INSAT-3DR", "OBJECT_ID": "2016-054A", "EPOCH": "2025-12-20T03:18:35.620128", "MEAN_MOTION": 1.00271606, "ECCENTRICITY": 0.0014128, "INCLINATION": 0.1099, "RA_OF_ASC_NODE": 86.4008, "ARG_OF_PERICENTER": 185.1438, "MEAN_ANOMALY": 301.0691, "EPHEMERIS_TYPE": 0, "CLASSIFICATION_TYPE": "U", "NORAD_CAT_ID": 41752, "ELEMENT_SET_NO": 999, "REV_AT_EPOCH": 3402, "BSTAR": 0, "MEAN_MOTION_DOT": -5.3e-07, "MEAN_MOTION_DDOT": 0}, "tle": {"line1": "1 41752U 16054A   25354.13791227 -.00000053  00000+0  00000+0 0  9993", "line2": "2 41752   0.1099  86.4008 0014128 185.1438 301.0691  1.00271606 34024"}}, "geometry": {"type": "Point", "coordinates": [-52.685672912269936, -0.09038154788261199]}}]}